ZHUHAI-1 02 (CAS-4B)    
1 42759U 17034B   23146.13516058  .00006968  00000+0  35608-3 0  9990
2 42759  43.0153 238.2458 0011690 314.6909  45.2986 15.17104416328283
ZHUHAI-1 01 (CAS-4A)    
1 42761U 17034D   23146.15133946  .00005386  00000+0  27788-3 0  9999
2 42761  43.0144 236.6891 0012408 316.8238  43.1636 15.17107401328293
MAX VALIER SAT          
1 42778U 17036P   23145.59503361  .00021175  00000+0  56953-3 0  9998
2 42778  97.1572 180.9865 0009343 168.5844 191.5615 15.37858424329259
RADFXSAT (FOX-1B)       
1 43017U 17073E   23145.89698146  .00006203  00000+0  43471-3 0  9991
2 43017  97.6331  31.1197 0235359 142.5618 219.2259 14.85782732297872
FOX-1D (AO-92)          
1 43137U 18004AC  23145.72894162  .00030742  00000+0  66082-3 0  9995
2 43137  97.3286 224.7026 0005914 205.3567 154.7392 15.44598042298849
DIWATA-2B               
1 43678U 18084H   23146.14480780  .00001749  00000+0  17243-3 0  9997
2 43678  98.0201 289.6753 0008552 228.9586 131.0895 14.93358398248970
ES'HAIL 2               
1 43700U 18090A   23145.92549520  .00000150  00000+0  00000+0 0  9997
2 43700   0.0112 351.5966 0001341 100.6188 149.9901  1.00272923 16464
FOX-1CLIFF (AO-95)      
1 43770U 18099N   23145.74073712  .00004226  00000+0  34724-3 0  9990
2 43770  97.5763 207.8868 0011371 200.9412 159.1348 14.99645535244248
ITASAT 1                
1 43786U 18099AE  23145.67157987  .00004140  00000+0  34273-3 0  9990
2 43786  97.5795 208.8507 0012805 188.5803 171.5203 14.99349021244271
JY1SAT (JO-97)          
1 43803U 18099AX  23145.71201029  .00005582  00000+0  44579-3 0  9993
2 43803  97.5687 208.8618 0012782 167.1584 192.9968 15.00589263244325
UWE-4                   
1 43880U 18111E   23145.70717128  .00004680  00000+0  36125-3 0  9990
2 43880  97.6328  51.2473 0016006 247.2853 112.6680 15.01947883240990
NEXUS (FO-99)           
1 43937U 19003F   23146.04657060  .00046562  00000+0  80690-3 0  9991
2 43937  97.0881 173.5615 0011305   8.3107 351.8330 15.50691513242612
JAISAT-1                
1 44419U 19038F   23145.92129835  .00020717  00000+0  72755-3 0  9992
2 44419  97.6736 126.9200 0015756  30.4924 329.7229 15.29312584215134
DUCHIFAT-3              
1 44854U 19089C   23145.59943900  .00006879  00000+0  46840-3 0  9990
2 44854  36.9609 226.2470 0008506 137.1974 222.9432 15.05935165189499
CAS-6 (TIANQIN 1)       
1 44881U 19093C   23146.15862345  .00000972  00000+0  12742-3 0  9993
2 44881  97.8615 224.9849 0015595 145.7299 214.4924 14.82489231185533
RS-44 & BREEZE-KM R/B   
1 44909U 19096E   23144.61127017  .00000014  00000+0  16709-4 0  9991
2 44909  82.5232   3.6148 0216437 241.9825 115.9232 12.79720718159143
BY70-2                  
1 45857U 20042B   23146.18424105  .00014324  00000+0  14986-2 0  9991
2 45857  97.9251 226.0209 0010049  88.0181 272.2187 14.89702158156269
SALSAT                  
1 46495U 20068K   23145.82027193  .00003558  00000+0  23786-3 0  9990
2 46495  97.7684  93.5922 0015235 189.9183 170.1746 15.07543811145704
RADFXSAT-2 (AO-109)     
1 47311U 21002C   23146.21115107  .00018824  00000+0  50529-3 0  9991
2 47311  60.6797 142.9539 0015708 163.1008 197.0613 15.37942607130911
UVSQ-SAT                
1 47438U 21006AB  23146.10206843  .00013551  00000+0  56489-3 0  9994
2 47438  97.3854 203.5356 0011009 153.2235 206.9572 15.23763321129286
DIY-1 (ARDUIQUBE)       
1 47963U 21022AH  23145.96265457  .00160783  00000+0  24817-2 0  9993
2 47963  97.4967  53.4494 0008622  64.3115 295.9027 15.53525633119137
XW-3 (CAS-9)            
1 50466U 21131B   23146.19599699  .00000614  00000+0  21367-3 0  9994
2 50466  98.5515 227.8095 0004075 188.9255 171.1860 14.38894308 74196
TEVEL-3                 
1 50988U 22002E   23146.12769168  .00015958  00000+0  65456-3 0  9998
2 50988  97.4338 213.2559 0006229 315.1726  44.9008 15.24311584 75402
TEVEL-8                 
1 50989U 22002F   23146.14549119  .00016243  00000+0  66744-3 0  9992
2 50989  97.4353 213.3304 0006252 313.5482  46.5235 15.24246597 75407
TEVEL-5                 
1 50998U 22002Q   23146.14957493  .00015923  00000+0  63780-3 0  9991
2 50998  97.4330 213.6358 0007371 307.3665  52.6901 15.25103941 75438
TEVEL-6                 
1 50999U 22002R   23146.14809676  .00015819  00000+0  63365-3 0  9994
2 50999  97.4328 213.6295 0007368 307.0211  53.0352 15.25103301 75431
TEVEL-1                 
1 51013U 22002AF  23146.13683902  .00016910  00000+0  69427-3 0  9991
2 51013  97.4332 213.2111 0006145 314.3768  45.6966 15.24268172 75409
TEVEL-7                 
1 51062U 22002CG  23146.14673163  .00016516  00000+0  67828-3 0  9999
2 51062  97.4348 213.3055 0006224 312.9860  47.0855 15.24262822 75402
TEVEL-4                 
1 51063U 22002CH  23146.15208666  .00015958  00000+0  65645-3 0  9997
2 51063  97.4349 213.2961 0006214 313.2898  46.7820 15.24214255 75408
TEVEL-2                 
1 51069U 22002CP  23146.19518738  .00015680  00000+0  64320-3 0  9992
2 51069  97.4335 213.2951 0006171 314.2710  45.8020 15.24314102 75419
GREENCUBE               
1 53106U 22080B   23143.46060132 -.00000003  00000+0  00000+0 0  9994
2 53106  70.1622 328.3166 0008351 190.4810 169.5677  6.42557191 20164
RS29S (SXC3-2110 CYCLO*)
1 53373U 22096D   23146.15191217  .00024914  00000+0  67296-3 0  9995
2 53373  97.4150  52.2136 0002253 111.8250 248.3234 15.37739910 44300
RS32S (SXC3-212 MONITO*)
1 53374U 22096E   23146.17449400  .00022155  00000+0  61408-3 0  9992
2 53374  97.4129  52.1484 0002370 124.9482 235.1985 15.36960555 44301
RS34S (SXC3-218 KUZBAS*)
1 53375U 22096F   23146.16897971  .00019004  00000+0  55787-3 0  9994
2 53375  97.4155  51.8889 0002291 121.6544 238.4923 15.35194567 44287
RS23S (SXC3-21 UTMN)    
1 53376U 22096G   23146.19887033  .00018656  00000+0  53898-3 0  9999
2 53376  97.4151  51.9956 0002234 115.4573 244.6902 15.35699590 44293
RS28S (SXC3-214 MIET-A*)
1 53377U 22096H   23146.17333956  .00016420  00000+0  48753-3 0  9999
2 53377  97.4160  51.8890 0002186 123.8116 236.3335 15.34866710 44288
RS26S (KAI-1)           
1 53378U 22096J   23146.19238870  .00014684  00000+0  45498-3 0  9994
2 53378  97.4174  51.7229 0002295 122.1388 238.0078 15.33538094 44275
RS19S (SXC3-219 ISOI)   
1 53381U 22096M   23146.19757953  .00017733  00000+0  51340-3 0  9997
2 53381  97.4150  52.1456 0005312 120.4596 239.7173 15.35634023 44304
RS21S (CUBESX-HSE-2)    
1 53383U 22096P   23146.17631830  .00018587  00000+0  53129-3 0  9997
2 53383  97.4153  52.1841 0005786 122.6695 237.5108 15.36021915 44301
RS30S (SXC3-217 SIREN)  
1 53384U 22096Q   23146.18732069  .00014858  00000+0  44424-3 0  9990
2 53384  97.4165  52.0275 0005785 120.0917 240.0901 15.34654175 44299
RS20S (GEOSCAN-EDELVEIS)
1 53385U 22096R   23146.14022975  .00025511  00000+0  65640-3 0  9996
2 53385  97.4144  52.6701 0006221 120.4441 239.7420 15.39217194 44369
RS33S (SXC3-215 VIZARD) 
1 53386U 22096S   23146.16932307  .00033343  00000+0  76886-3 0  9994
2 53386  97.4140  53.2381 0006959 119.7214 240.4726 15.42482896 44392
CAS-5A (FO-118)         
1 54684U 22167C   23146.19675092  .00009812  00000+0  54905-3 0  9995
2 54684  97.5598 283.9373 0014241  55.2424 305.0145 15.13570512 25354
